{
"type": "FeatureCollection",
"name": "madison_food_pois",
"crs": { "type": "name", "properties": { "name": "urn:ogc:def:crs:OGC:1.3:CRS84" } },
"features": [
{ "type": "Feature", "properties": { "name": "Fresh Madison Market", "store_type": "supermarket", "city": "madison", "hours": "Mo-Su 07:00-22:00", "organic": false, "snap_wic": false, "building_area": 0, "shop_tag": "supermarket", "brand": "", "operator": "" }, "geometry": { "type": "Point", "coordinates": [ -89.3976601, 43.0730022 ] } },
{ "type": "Feature", "properties": { "name": "Triangle Market", "store_type": "convenience", "city": "madison", "hours": "", "organic": false, "snap_wic": false, "building_area": 0, "shop_tag": "convenience", "brand": "", "operator": "" }, "geometry": { "type": "Point", "coordinates": [ -89.3903663, 43.0749084 ] } },
{ "type": "Feature", "properties": { "name": "MacTaggart's Market", "store_type": "convenience", "city": "madison", "hours": "Mo-Th 07:00-24:00; Fr 07:00-03:00; Sa 08:00-03:00; Su 08:00-24:00", "organic": false, "snap_wic": false, "building_area": 0, "shop_tag": "convenience", "brand": "", "operator": "" }, "geometry": { "type": "Point", "coordinates": [ -89.3939129, 43.0765361 ] } },
{ "type": "Feature", "properties": { "name": "Badger Market", "store_type": "convenience", "city": "madison", "hours": "", "organic": false, "snap_wic": false, "building_area": 0, "shop_tag": "convenience", "brand": "", "operator": "" }, "geometry": { "type": "Point", "coordinates": [ -89.408298, 43.0719478 ] } },
{ "type": "Feature", "properties": { "name": "Kwik Trip", "store_type": "convenience", "city": "madison", "hours": "24/7", "organic": false, "snap_wic": false, "building_area": 0, "shop_tag": "convenience", "brand": "Kwik Trip", "operator": "" }, "geometry": { "type": "Point", "coordinates": [ -89.4091871, 43.0698482 ] } },
{ "type": "Feature", "properties": { "name": "Festival Foods", "store_type": "supermarket", "city": "madison", "hours": "Mo-Su 06:00-22:00", "organic": false, "snap_wic": false, "building_area": 0, "shop_tag": "supermarket", "brand": "", "operator": "" }, "geometry": { "type": "Point", "coordinates": [ -89.375034, 43.0814796 ] } },
{ "type": "Feature", "properties": { "name": "Royal Mart", "store_type": "grocery", "city": "madison", "hours": "", "organic": false, "snap_wic": false, "building_area": 0, "shop_tag": "grocery", "brand": "", "operator": "" }, "geometry": { "type": "Point", "coordinates": [ -89.3910361, 43.0749114 ] } },
{ "type": "Feature", "properties": { "name": "Badger Market", "store_type": "convenience", "city": "madison", "hours": "", "organic": false, "snap_wic": false, "building_area": 0, "shop_tag": "convenience", "brand": "", "operator": "" }, "geometry": { "type": "Point", "coordinates": [ -89.3995025, 43.0761715 ] } },
{ "type": "Feature", "properties": { "name": "Oriental Shop", "store_type": "convenience", "city": "madison", "hours": "", "organic": false, "snap_wic": false, "building_area": 0, "shop_tag": "convenience", "brand": "", "operator": "" }, "geometry": { "type": "Point", "coordinates": [ -89.3975558, 43.0556422 ] } },
{ "type": "Feature", "properties": { "name": "Bassett Food Mart", "store_type": "convenience", "city": "madison", "hours": "Mo-Su 10:00-22:00", "organic": false, "snap_wic": false, "building_area": 0, "shop_tag": "convenience", "brand": "", "operator": "" }, "geometry": { "type": "Point", "coordinates": [ -89.3896946, 43.0695267 ] } },
{ "type": "Feature", "properties": { "name": "Frances Street Market", "store_type": "convenience", "city": "madison", "hours": "", "organic": false, "snap_wic": false, "building_area": 0, "shop_tag": "convenience", "brand": "", "operator": "" }, "geometry": { "type": "Point", "coordinates": [ -89.395937, 43.074504 ] } },
{ "type": "Feature", "properties": { "name": "J&P Fresh Market", "store_type": "supermarket", "city": "madison", "hours": "Mo-Su 11:00-19:30", "organic": false, "snap_wic": false, "building_area": 0, "shop_tag": "supermarket", "brand": "", "operator": "" }, "geometry": { "type": "Point", "coordinates": [ -89.3913162, 43.0749196 ] } },
{ "type": "Feature", "properties": { "name": "Pinkus Market", "store_type": "convenience", "city": "madison", "hours": "Mo-Su 07:00-02:00", "organic": false, "snap_wic": false, "building_area": 0, "shop_tag": "convenience", "brand": "", "operator": "" }, "geometry": { "type": "Point", "coordinates": [ -89.3972309, 43.074784 ] } },
{ "type": "Feature", "properties": { "name": "Midway Foods Asian", "store_type": "supermarket", "city": "madison", "hours": "Mo-Su 09:00-20:00", "organic": false, "snap_wic": false, "building_area": 100, "shop_tag": "supermarket", "brand": "", "operator": "" }, "geometry": { "type": "Point", "coordinates": [ -89.4004684, 43.0639647 ] } },
{ "type": "Feature", "properties": { "name": "BP Shop", "store_type": "convenience", "city": "madison", "hours": "Mo-Fr 10:00-21:00; Sa,Su 11:00-21:00", "organic": false, "snap_wic": false, "building_area": 100, "shop_tag": "convenience", "brand": "BP Shop", "operator": "" }, "geometry": { "type": "Point", "coordinates": [ -89.4013533, 43.0634607 ] } },
{ "type": "Feature", "properties": { "name": "Capitol Centre Market", "store_type": "supermarket", "city": "madison", "hours": "Mo-Su 07:00-24:00", "organic": false, "snap_wic": false, "building_area": 100, "shop_tag": "supermarket", "brand": "", "operator": "" }, "geometry": { "type": "Point", "coordinates": [ -89.3905987, 43.0729139 ] } },
{ "type": "Feature", "properties": { "name": "BP Shop", "store_type": "convenience", "city": "madison", "hours": "", "organic": false, "snap_wic": false, "building_area": 100, "shop_tag": "convenience", "brand": "BP Shop", "operator": "" }, "geometry": { "type": "Point", "coordinates": [ -89.3754338, 43.0803224 ] } },
{ "type": "Feature", "properties": { "name": "Pinkus McBride Market & Deli", "store_type": "convenience", "city": "madison", "hours": "Su-Th 07:00-23:00; Fr-Sa 07:00-24:00", "organic": false, "snap_wic": false, "building_area": 100, "shop_tag": "convenience", "brand": "", "operator": "" }, "geometry": { "type": "Point", "coordinates": [ -89.3838994, 43.0791651 ] } },
{ "type": "Feature", "properties": { "name": "Regent Street Mart", "store_type": "convenience", "city": "madison", "hours": "", "organic": false, "snap_wic": false, "building_area": 100, "shop_tag": "convenience", "brand": "", "operator": "" }, "geometry": { "type": "Point", "coordinates": [ -89.4093445, 43.0673211 ] } },
{ "type": "Feature", "properties": { "name": "Stop & Shop Grocery", "store_type": "convenience", "city": "madison", "hours": "", "organic": false, "snap_wic": false, "building_area": 100, "shop_tag": "convenience", "brand": "", "operator": "" }, "geometry": { "type": "Point", "coordinates": [ -89.3939411, 43.0746326 ] } },
{ "type": "Feature", "properties": { "name": "Shell Select", "store_type": "convenience", "city": "madison", "hours": "", "organic": false, "snap_wic": false, "building_area": 100, "shop_tag": "convenience", "brand": "Shell Select", "operator": "" }, "geometry": { "type": "Point", "coordinates": [ -89.3998329, 43.0572665 ] } },
{ "type": "Feature", "properties": { "name": "Stop N Shop", "store_type": "convenience", "city": "madison", "hours": "10:00-22:00", "organic": false, "snap_wic": false, "building_area": 100, "shop_tag": "convenience", "brand": "", "operator": "" }, "geometry": { "type": "Point", "coordinates": [ -89.3821186, 43.078087 ] } },
{ "type": "Feature", "properties": { "name": "Madison Food Mart", "store_type": "convenience", "city": "madison", "hours": "Mo-Su 08:00-22:00", "organic": false, "snap_wic": false, "building_area": 100, "shop_tag": "convenience", "brand": "", "operator": "" }, "geometry": { "type": "Point", "coordinates": [ -89.3762561, 43.0847559 ] } }
]
}
